CFOSAT                  
1 43662U 18083A   21324.09205468  .00000592  00000-0  33947-4 0  9993
2 43662  97.4406 345.9828 0001502  92.9736 351.9712 15.16317694169430
